{
    "links": {
        "self": "http://www.neowsapp.com/rest/v1/neo/3459430?api_key=iIulBulltgU6a56xZRHN4H3l9WmuAYTsLGpBGhQ2"
    },
    "id": "3459430",
    "neo_reference_id": "3459430",
    "name": "(2009 JS)",
    "designation": "2009 JS",
    "nasa_jpl_url": "http://ssd.jpl.nasa.gov/sbdb.cgi?sstr=3459430",
    "absolute_magnitude_h": 25.7,
    "estimated_diameter": {
        "kilometers": {
            "estimated_diameter_min": 0.0192555078,
            "estimated_diameter_max": 0.0430566244
        },
        "meters": {
            "estimated_diameter_min": 19.2555078188,
            "estimated_diameter_max": 43.0566244241
        },
        "miles": {
            "estimated_diameter_min": 0.0119648141,
            "estimated_diameter_max": 0.0267541378
        },
        "feet": {
            "estimated_diameter_min": 63.1742402722,
            "estimated_diameter_max": 141.2618956756
        }
    },
    "is_potentially_hazardous_asteroid": false,
    "close_approach_data": [
        {
            "close_approach_date": "2008-11-13",
            "close_approach_date_full": "2008-Nov-13 06:05",
            "epoch_date_close_approach": 1226556300000,
            "relative_velocity": {
                "kilometers_per_second": "7.4608483396",
                "kilometers_per_hour": "26859.0540226347",
                "miles_per_hour": "16689.1716508976"
            },
            "miss_distance": {
                "astronomical": "0.4578336127",
                "lunar": "178.0972753403",
                "kilometers": "68490933.274324949",
                "miles": "42558292.4824203362"
            },
            "orbiting_body": "Earth"
        },
        {
            "close_approach_date": "2009-04-30",
            "close_approach_date_full": "2009-Apr-30 00:40",
            "epoch_date_close_approach": 1241052000000,
            "relative_velocity": {
                "kilometers_per_second": "8.6500665121",
                "kilometers_per_hour": "31140.2394434545",
                "miles_per_hour": "19349.3337808509"
            },
            "miss_distance": {
                "astronomical": "0.0089087565",
                "lunar": "3.4655062785",
                "kilometers": "1332730.996748655",
                "miles": "828120.640915239"
            },
            "orbiting_body": "Moon"
        },
        {
            "close_approach_date": "2009-04-30",
            "close_approach_date_full": "2009-Apr-30 06:22",
            "epoch_date_close_approach": 1241072520000,
            "relative_velocity": {
                "kilometers_per_second": "9.4147554466",
                "kilometers_per_hour": "33893.1196079219",
                "miles_per_hour": "21059.8664586001"
            },
            "miss_distance": {
                "astronomical": "0.0084615974",
                "lunar": "3.2915613886",
                "kilometers": "1265836.947837538",
                "miles": "786554.6063645044"
            },
            "orbiting_body": "Earth"
        },
        {
            "close_approach_date": "2069-12-10",
            "close_approach_date_full": "2069-Dec-10 10:45",
            "epoch_date_close_approach": 3153897900000,
            "relative_velocity": {
                "kilometers_per_second": "17.3819452135",
                "kilometers_per_hour": "62575.002768438",
                "miles_per_hour": "38881.6732479775"
            },
            "miss_distance": {
                "astronomical": "0.2910917663",
                "lunar": "113.2346970907",
                "kilometers": "43546708.213017781",
                "miles": "27058669.7563801378"
            },
            "orbiting_body": "Earth"
        }
    ],
    "orbital_data": {
        "orbit_id": "6",
        "orbit_determination_date": "2017-04-06 09:00:36",
        "first_observation_date": "2009-05-03",
        "last_observation_date": "2009-05-04",
        "data_arc_in_days": 1,
        "observations_used": 7,
        "orbit_uncertainty": "9",
        "minimum_orbit_intersection": ".00847398",
        "jupiter_tisserand_invariant": "4.808",
        "epoch_osculation": "2454955.5",
        "eccentricity": ".3594656036944307",
        "semi_major_axis": "1.346416260386883",
        "inclination": "6.387335849152726",
        "ascending_node_longitude": "43.8626269546657",
        "orbital_period": "570.6468820782652",
        "perihelion_distance": ".8624259265229144",
        "perihelion_argument": "112.4476354087013",
        "aphelion_distance": "1.830406594250852",
        "perihelion_time": "2454902.238241731237",
        "mean_anomaly": "33.60087223629989",
        "mean_motion": ".6308629930455405",
        "equinox": "J2000",
        "orbit_class": {
            "orbit_class_type": "APO",
            "orbit_class_description": "Near-Earth asteroid orbits which cross the Earth’s orbit similar to that of 1862 Apollo",
            "orbit_class_range": "a (semi-major axis) > 1.0 AU; q (perihelion) < 1.017 AU"
        }
    },
    "is_sentry_object": false
}